{"type": "FeatureCollection", "features": [ {"type": "Feature", "properties": {"norad_id": 33867, "name": "IRIDIUM 33 DEB", "group": "iridium-33-debris", "lat": 13.881601406914282, "lon": 173.4681464415618, "alt_km": 399.9209417315333, "timestamp": "2025-12-04T10:51:50.490218+00:00", "meta": {"OBJECT_NAME": "IRIDIUM 33 DEB", "OBJECT_ID": "1997-051AL", "EPOCH": "2025-12-04T00:53:10.204224", "MEAN_MOTION": 15.54633493, "ECCENTRICITY": 0.0012389, "INCLINATION": 86.3627, "RA_OF_ASC_NODE": 354.5807, "ARG_OF_PERICENTER": 97.6739, "MEAN_ANOMALY": 262.5931, "EPHEMERIS_TYPE": 0, "CLASSIFICATION_TYPE": "U", "NORAD_CAT_ID": 33867, "ELEMENT_SET_NO": 999, "REV_AT_EPOCH": 89375, "BSTAR": 0.010164, "MEAN_MOTION_DOT": 0.00736718, "MEAN_MOTION_DDOT": 0}, "tle": {"line1": "1 33867U 97051AL  25338.03692366  .00736718  00000+0  10164-1 0  9999", "line2": "2 33867  86.3627 354.5807 0012389  97.6739 262.5931 15.54633493893750"}}, "geometry": {"type": "Point", "coordinates": [173.4681464415618, 13.881601406914282]}}, {"type": "Feature", "properties": {"norad_id": 33870, "name": "IRIDIUM 33 DEB", "group": "iridium-33-debris", "lat": 59.71254084816706, "lon": 68.04243784570673, "alt_km": 745.8454506178887, "timestamp": "2025-12-04T10:51:50.490228+00:00", "meta": {"OBJECT_NAME": "IRIDIUM 33 DEB", "OBJECT_ID": "1997-051AP", "EPOCH": "2025-12-03T16:55:20.809344", "MEAN_MOTION": 14.45765696, "ECCENTRICITY": 0.00205196, "INCLINATION": 86.3759, "RA_OF_ASC_NODE": 62.133, "ARG_OF_PERICENTER": 208.1182, "MEAN_ANOMALY": 283.557, "EPHEMERIS_TYPE": 0, "CLASSIFICATION_TYPE": "U", "NORAD_CAT_ID": 33870, "ELEMENT_SET_NO": 999, "REV_AT_EPOCH": 88006, "BSTAR": 0.0013399091, "MEAN_MOTION_DOT": 4.78e-05, "MEAN_MOTION_DDOT": 0}, "tle": {"line1": "1 33870U 97051AP  25337.70510196  .00004780  00000+0  13399-2 0  9997", "line2": "2 33870  86.3759  62.1330 0020519 208.1182 283.5570 14.45765696880060"}}, "geometry": {"type": "Point", "coordinates": [68.04243784570673, 59.71254084816706]}}, {"type": "Feature", "properties": {"norad_id": 33881, "name": "IRIDIUM 33 DEB", "group": "iridium-33-debris", "lat": -28.107603245963123, "lon": 108.40746805507936, "alt_km": 739.0118725929187, "timestamp": "2025-12-04T10:51:50.490239+00:00", "meta": {"OBJECT_NAME": "IRIDIUM 33 DEB", "OBJECT_ID": "1997-051BA", "EPOCH": "2025-12-03T08:52:49.327968", "MEAN_MOTION": 14.56290168, "ECCENTRICITY": 0.0061157, "INCLINATION": 86.3865, "RA_OF_ASC_NODE": 110.812, "ARG_OF_PERICENTER": 205.0667, "MEAN_ANOMALY": 213.9917, "EPHEMERIS_TYPE": 0, "CLASSIFICATION_TYPE": "U", "NORAD_CAT_ID": 33881, "ELEMENT_SET_NO": 999, "REV_AT_EPOCH": 87364, "BSTAR": 0.002603, "MEAN_MOTION_DOT": 0.00011848, "MEAN_MOTION_DDOT": 0}, "tle": {"line1": "1 33881U 97051BA  25337.37001537  .00011848  00000+0  26030-2 0  9995", "line2": "2 33881  86.3865 110.8120 0061157 205.0667 213.9917 14.56290168873642"}}, "geometry": {"type": "Point", "coordinates": [108.40746805507936, -28.107603245963123]}}, {"type": "Feature", "properties": {"norad_id": 33884, "name": "IRIDIUM 33 DEB", "group": "iridium-33-debris", "lat": 16.857957217453848, "lon": 14.66155855160896, "alt_km": 632.0334442919439, "timestamp": "2025-12-04T10:51:50.490250+00:00", "meta": {"OBJECT_NAME": "IRIDIUM 33 DEB", "OBJECT_ID": "1997-051BD", "EPOCH": "2025-12-04T02:54:00.283968", "MEAN_MOTION": 14.77168398, "ECCENTRICITY": 0.0010613, "INCLINATION": 86.3697, "RA_OF_ASC_NODE": 13.7089, "ARG_OF_PERICENTER": 355.5376, "MEAN_ANOMALY": 57.9595, "EPHEMERIS_TYPE": 0, "CLASSIFICATION_TYPE": "U", "NORAD_CAT_ID": 33884, "ELEMENT_SET_NO": 999, "REV_AT_EPOCH": 88720, "BSTAR": 0.0029953, "MEAN_MOTION_DOT": 0.00021274, "MEAN_MOTION_DDOT": 0}, "tle": {"line1": "1 33884U 97051BD  25338.12083662  .00021274  00000+0  29953-2 0  9992", "line2": "2 33884  86.3697  13.7089 0010613 355.5376  57.9595 14.77168398887209"}}, "geometry": {"type": "Point", "coordinates": [14.66155855160896, 16.857957217453848]}}, {"type": "Feature", "properties": {"norad_id": 33886, "name": "IRIDIUM 33 DEB", "group": "iridium-33-debris", "lat": 85.93151844076688, "lon": -172.06165940597134, "alt_km": 772.7774154973758, "timestamp": "2025-12-04T10:51:50.490277+00:00", "meta": {"OBJECT_NAME": "IRIDIUM 33 DEB", "OBJECT_ID": "1997-051BF", "EPOCH": "2025-12-04T01:12:42.454368", "MEAN_MOTION": 14.36035454, "ECCENTRICITY": 0.0012064, "INCLINATION": 86.3832, "RA_OF_ASC_NODE": 70.8856, "ARG_OF_PERICENTER": 275.1243, "MEAN_ANOMALY": 258.9006, "EPHEMERIS_TYPE": 0, "CLASSIFICATION_TYPE": "U", "NORAD_CAT_ID": 33886, "ELEMENT_SET_NO": 999, "REV_AT_EPOCH": 87927, "BSTAR": 0.00039445, "MEAN_MOTION_DOT": 1.166e-05, "MEAN_MOTION_DDOT": 0}, "tle": {"line1": "1 33886U 97051BF  25338.05049137  .00001166  00000+0  39445-3 0  9991", "line2": "2 33886  86.3832  70.8856 0012064 275.1243 258.9006 14.36035454879279"}}, "geometry": {"type": "Point", "coordinates": [-172.06165940597134, 85.93151844076688]}}, {"type": "Feature", "properties": {"norad_id": 33887, "name": "IRIDIUM 33 DEB", "group": "iridium-33-debris", "lat": -6.865107002215811, "lon": 6.517755381052386, "alt_km": 771.4534406204757, "timestamp": "2025-12-04T10:51:50.490289+00:00", "meta": {"OBJECT_NAME": "IRIDIUM 33 DEB", "OBJECT_ID": "1997-051BG", "EPOCH": "2025-12-04T02:49:23.956032", "MEAN_MOTION": 14.37209414, "ECCENTRICITY": 0.0004037, "INCLINATION": 86.3051, "RA_OF_ASC_NODE": 7.1078, "ARG_OF_PERICENTER": 267.9412, "MEAN_ANOMALY": 152.9243, "EPHEMERIS_TYPE": 0, "CLASSIFICATION_TYPE": "U", "NORAD_CAT_ID": 33887, "ELEMENT_SET_NO": 999, "REV_AT_EPOCH": 88041, "BSTAR": 0.00026792, "MEAN_MOTION_DOT": 8.17e-06, "MEAN_MOTION_DDOT": 0}, "tle": {"line1": "1 33887U 97051BG  25338.11763838  .00000817  00000+0  26792-3 0  9993", "line2": "2 33887  86.3051   7.1078 0004037 267.9412 152.9243 14.37209414880414"}}, "geometry": {"type": "Point", "coordinates": [6.517755381052386, -6.865107002215811]}}, {"type": "Feature", "properties": {"norad_id": 33953, "name": "IRIDIUM 33 DEB", "group": "iridium-33-debris", "lat": 30.819684670150085, "lon": 59.53680586422993, "alt_km": 708.7572392032334, "timestamp": "2025-12-04T10:51:50.490300+00:00", "meta": {"OBJECT_NAME": "IRIDIUM 33 DEB", "OBJECT_ID": "1997-051BN", "EPOCH": "2025-12-03T23:44:08.152800", "MEAN_MOTION": 14.55176293, "ECCENTRICITY": 0.0018536, "INCLINATION": 86.3856, "RA_OF_ASC_NODE": 57.5768, "ARG_OF_PERICENTER": 129.5034, "MEAN_ANOMALY": 354.176, "EPHEMERIS_TYPE": 0, "CLASSIFICATION_TYPE": "U", "NORAD_CAT_ID": 33953, "ELEMENT_SET_NO": 999, "REV_AT_EPOCH": 88176, "BSTAR": 0.0026744, "MEAN_MOTION_DOT": 0.00011614, "MEAN_MOTION_DDOT": 0}, "tle": {"line1": "1 33953U 97051BN  25337.98898325  .00011614  00000+0  26744-2 0  9994", "line2": "2 33953  86.3856  57.5768 0018536 129.5034 354.1760 14.55176293881765"}}, "geometry": {"type": "Point", "coordinates": [59.53680586422993, 30.819684670150085]}}, {"type": "Feature", "properties": {"norad_id": 33960, "name": "IRIDIUM 33 DEB", "group": "iridium-33-debris", "lat": 33.67902043855649, "lon": -64.07815365787724, "alt_km": 609.3359746198385, "timestamp": "2025-12-04T10:51:50.490312+00:00", "meta": {"OBJECT_NAME": "IRIDIUM 33 DEB", "OBJECT_ID": "1997-051BV", "EPOCH": "2025-12-03T22:02:56.046336", "MEAN_MOTION": 14.84433668, "ECCENTRICITY": 0.0007038, "INCLINATION": 86.253, "RA_OF_ASC_NODE": 293.6703, "ARG_OF_PERICENTER": 74.2098, "MEAN_ANOMALY": 348.0492, "EPHEMERIS_TYPE": 0, "CLASSIFICATION_TYPE": "U", "NORAD_CAT_ID": 33960, "ELEMENT_SET_NO": 999, "REV_AT_EPOCH": 88736, "BSTAR": 0.006117, "MEAN_MOTION_DOT": 0.00051818, "MEAN_MOTION_DDOT": 0}, "tle": {"line1": "1 33960U 97051BV  25337.91870424  .00051818  00000+0  61170-2 0  9997", "line2": "2 33960  86.2530 293.6703 0007038  74.2098 348.0492 14.84433668887364"}}, "geometry": {"type": "Point", "coordinates": [-64.07815365787724, 33.67902043855649]}}, {"type": "Feature", "properties": {"norad_id": 33966, "name": "IRIDIUM 33 DEB", "group": "iridium-33-debris", "lat": -33.152712131307815, "lon": 47.221908955629544, "alt_km": 734.874980314401, "timestamp": "2025-12-04T10:51:50.490322+00:00", "meta": {"OBJECT_NAME": "IRIDIUM 33 DEB", "OBJECT_ID": "1997-051CB", "EPOCH": "2025-12-04T02:56:26.083968", "MEAN_MOTION": 14.49537035, "ECCENTRICITY": 0.0006451, "INCLINATION": 86.3932, "RA_OF_ASC_NODE": 49.7248, "ARG_OF_PERICENTER": 219.0529, "MEAN_ANOMALY": 186.0597, "EPHEMERIS_TYPE": 0, "CLASSIFICATION_TYPE": "U", "NORAD_CAT_ID": 33966, "ELEMENT_SET_NO": 999, "REV_AT_EPOCH": 88317, "BSTAR": 0.0012209, "MEAN_MOTION_DOT": 4.701e-05, "MEAN_MOTION_DDOT": 0}, "tle": {"line1": "1 33966U 97051CB  25338.12252412  .00004701  00000+0  12209-2 0  9996", "line2": "2 33966  86.3932  49.7248 0006451 219.0529 186.0597 14.49537035883172"}}, "geometry": {"type": "Point", "coordinates": [47.221908955629544, -33.152712131307815]}}, {"type": "Feature", "properties": {"norad_id": 34071, "name": "IRIDIUM 33 DEB", "group": "iridium-33-debris", "lat": 36.79526341087278, "lon": 24.16964682582705, "alt_km": 725.3929277881816, "timestamp": "2025-12-04T10:51:50.490333+00:00", "meta": {"OBJECT_NAME": "IRIDIUM 33 DEB", "OBJECT_ID": "1997-051CE", "EPOCH": "2025-12-04T02:24:35.019648", "MEAN_MOTION": 14.49404394, "ECCENTRICITY": 0.0009494, "INCLINATION": 86.3465, "RA_OF_ASC_NODE": 21.5834, "ARG_OF_PERICENTER": 130.9901, "MEAN_ANOMALY": 229.2125, "EPHEMERIS_TYPE": 0, "CLASSIFICATION_TYPE": "U", "NORAD_CAT_ID": 34071, "ELEMENT_SET_NO": 999, "REV_AT_EPOCH": 88209, "BSTAR": 0.0012417, "MEAN_MOTION_DOT": 4.769e-05, "MEAN_MOTION_DDOT": 0}, "tle": {"line1": "1 34071U 97051CE  25338.10040532  .00004769  00000+0  12417-2 0  9995", "line2": "2 34071  86.3465  21.5834 0009494 130.9901 229.2125 14.49404394882093"}}, "geometry": {"type": "Point", "coordinates": [24.16964682582705, 36.79526341087278]}}]}